NORAD_CAT_ID,OBJECT_NAME,OBJECT_TYPE,EPOCH,MEAN_MOTION,ECCENTRICITY,INCLINATION,RA_OF_ASC_NODE,ARG_OF_PERICENTER,MEAN_ANOMALY,BSTAR,MEAN_MOTION_DOT,MEAN_MOTION_DDOT,TLE_LINE0,TLE_LINE1,TLE_LINE2,SEMIMAJOR_AXIS,PERIOD,APOGEE,PERIGEE,DECAYED
49435.0,STARLINK-3117,PAYLOAD,2022-04-06 14:00:01,15.09041691,0.0002155,53.2175,162.58,34.298,236.5308,-0.016693,-0.00258016,0.0,0 STARLINK-3117,1 49435U 21104AD  22096.58334491 -.00258016  00000-0 -16693-1 0  9999,2 49435  53.2175 162.5800 0002155  34.2980 236.5308 15.09041691  3636,6917.264,95.425,540.62,537.638,0.0
49435.0,STARLINK-3117,PAYLOAD,2022-04-06 22:00:00,15.08830823,0.0001878,53.2175,161.0825,37.5258,245.0354,0.00065979,0.00010226,0.0,0 STARLINK-3117,1 49435U 21104AD  22096.91667824  .00010226  00000-0  65979-3 0  9995,2 49435  53.2175 161.0825 0001878  37.5258 245.0354 15.08830823 23698,6917.908,95.438,541.073,538.474,0.0
49435.0,STARLINK-3117,PAYLOAD,2022-04-07 06:00:00,15.08859953,0.0001928,53.2191,159.5963,44.0181,250.226,-0.00025167,-4.294e-05,0.0,0 STARLINK-3117,1 49435U 21104AD  22097.25001157 -.00004294  00000-0 -25167-3 0  9999,2 49435  53.2191 159.5963 0001928  44.0181 250.2260 15.08859953 23740,6917.819,95.436,541.018,538.351,0.0
49435.0,STARLINK-3117,PAYLOAD,2022-04-07 14:00:01,15.08837396,0.0002111,53.2189,158.1015,38.5777,267.2876,0.0027585,0.00043885,0.0,0 STARLINK-3117,1 49435U 21104AD  22097.58334491  .00043885  00000-0  27585-2 0  9997,2 49435  53.2189 158.1015 0002111  38.5777 267.2876 15.08837396  3616,6917.888000000001,95.438,541.214,538.293,0.0
49435.0,STARLINK-3117,PAYLOAD,2022-04-07 22:00:00,15.08891165,0.0001829,53.2189,156.6035,38.486,278.9992,-0.0090519,-0.00141729,0.0,0 STARLINK-3117,1 49435U 21104AD  22097.91667824 -.00141729  00000-0 -90519-2 0  9998,2 49435  53.2189 156.6035 0001829  38.4860 278.9992 15.08891165  3586,6917.724,95.434,540.854,538.3240000000002,0.0
49435.0,STARLINK-3117,PAYLOAD,2022-04-08 06:00:00,15.08767609,0.0001822,53.219,155.1075,40.1271,288.958,0.0025965,0.00041195,0.0,0 STARLINK-3117,1 49435U 21104AD  22098.25001157  .00041195  00000-0  25965-2 0  9994,2 49435  53.2190 155.1075 0001822  40.1271 288.9580 15.08767609 23890,6918.102,95.442,541.227,538.706,0.0
49435.0,STARLINK-3117,PAYLOAD,2022-04-08 14:00:03,15.08781498,0.0002025,53.2187,153.6127,36.2731,304.4552,0.0074688,0.00120424,0.0,0 STARLINK-3117,1 49435U 21104AD  22098.58336806  .00120424  00000-0  74688-2 0  9991,2 49435  53.2187 153.6127 0002025  36.2731 304.4552 15.08781498  3613,6918.059,95.441,541.325,538.523,0.0
49435.0,STARLINK-3117,PAYLOAD,2022-04-08 22:00:00,15.08852746,0.0001846,53.2186,152.115,39.5348,312.6487,-0.0014332,-0.00023033,0.0,0 STARLINK-3117,1 49435U 21104AD  22098.91667824 -.00023033  00000-0 -14332-2 0  9995,2 49435  53.2186 152.1150 0001846  39.5348 312.6487 15.08852746  3660,6917.840999999999,95.437,540.9830000000002,538.429,0.0
49435.0,STARLINK-3117,PAYLOAD,2022-04-09 14:00:01,15.08817351,0.000202,53.2184,149.1242,36.2808,339.0904,0.0029169,0.00046412,0.0,0 STARLINK-3117,1 49435U 21104AD  22099.58334491  .00046412  00000-0  29169-2 0  9998,2 49435  53.2184 149.1242 0002020  36.2808 339.0904 15.08817351  3611,6917.95,95.439,541.212,538.4169999999998,0.0
49435.0,STARLINK-3117,PAYLOAD,2022-04-09 16:00:00,15.08835685,0.0002021,53.2182,148.7498,35.4829,72.7797,0.0010577,0.00016583,0.0,0 STARLINK-3117,1 49435U 21104AD  22099.66667824  .00016583  00000-0  10577-2 0  9995,2 49435  53.2182 148.7498 0002021  35.4829  72.7797 15.08835685 24111,6917.894,95.438,541.1569999999998,538.36,0.0
49435.0,STARLINK-3117,PAYLOAD,2022-04-09 22:00:00,15.08840037,0.0001854,53.2183,147.6262,40.0186,346.9579,0.001723,0.0002723999999999,0.0,0 STARLINK-3117,1 49435U 21104AD  22099.91667824  .00027240  00000-0  17230-2 0  9998,2 49435  53.2183 147.6262 0001854  40.0186 346.9579 15.08840037  3613,6917.88,95.438,541.028,538.4630000000002,0.0
49435.0,STARLINK-3117,PAYLOAD,2022-04-10 14:00:01,15.088180800000002,0.0002172,53.2183,144.6354,39.6284,10.564,0.0030824,0.00049081,0.0,0 STARLINK-3117,1 49435U 21104AD  22100.58334491  .00049081  00000-0  30824-2 0  9996,2 49435  53.2183 144.6354 0002172  39.6284  10.5640 15.08818080  3626,6917.946999999999,95.439,541.315,538.31,0.0
49435.0,STARLINK-3117,PAYLOAD,2022-04-10 22:00:00,15.08847243,0.0001991,53.2184,143.1372,42.9494,18.8478,0.0003582,5.418e-05,0.0,0 STARLINK-3117,1 49435U 21104AD  22100.91667824  .00005418  00000-0  35820-3 0  9990,2 49435  53.2184 143.1372 0001991  42.9494  18.8478 15.08847243 24300,6917.858,95.437,541.101,538.346,0.0
49435.0,STARLINK-3117,PAYLOAD,2022-04-11 14:00:01,15.08828475,0.0002171,53.2184,140.1465,36.8379,48.1536,0.00023675,3.481e-05,0.0,0 STARLINK-3117,1 49435U 21104AD  22101.58334491  .00003481  00000-0  23675-3 0  9998,2 49435  53.2184 140.1465 0002171  36.8379  48.1536 15.08828475 24403,6917.916,95.438,541.2819999999998,538.279,0.0
49435.0,STARLINK-3117,PAYLOAD,2022-04-11 22:00:00,15.08795311,0.0001948,53.2186,138.6484,39.1916,57.3895,0.0022626,0.00035861,0.0,0 STARLINK-3117,1 49435U 21104AD  22101.91667824  .00035861  00000-0  22626-2 0  9995,2 49435  53.2186 138.6484 0001948  39.1916  57.3895 15.08795311  3591,6918.017,95.44,541.23,538.534,0.0
49435.0,STARLINK-3117,PAYLOAD,2022-04-12 14:00:01,15.08806407,0.0002236,53.2187,135.6576,36.2163,83.4926,0.0023738,0.00037659,0.0,0 STARLINK-3117,1 49435U 21104AD  22102.58334491  .00037659  00000-0  23738-2 0  9992,2 49435  53.2187 135.6576 0002236  36.2163  83.4926 15.08806407 24557,6917.983,95.44,541.395,538.3009999999998,0.0
49435.0,STARLINK-3117,PAYLOAD,2022-04-12 22:00:00,15.088087300000002,0.0002047,53.219,134.1595,40.1803,91.1088,0.0025007,0.00039701,0.0,0 STARLINK-3117,1 49435U 21104AD  22102.91667824  .00039701  00000-0  25007-2 0  9999,2 49435  53.2190 134.1595 0002047  40.1803  91.1088 15.08808730  3587,6917.976,95.44,541.257,538.425,0.0
49435.0,STARLINK-3117,PAYLOAD,2022-04-13 04:00:00,15.08847558,0.0002113,53.219,133.0375,42.0225,7.9392,-0.00081923,-0.00013306,0.0,0 STARLINK-3117,1 49435U 21104AD  22103.16667824 -.00013306  00000-0 -81923-3 0  9992,2 49435  53.2190 133.0375 0002113  42.0225   7.9392 15.08847558 24648,6917.857,95.437,541.184,538.261,0.0
49435.0,STARLINK-3117,PAYLOAD,2022-04-13 14:00:03,15.08829558,0.0002318,53.2187,131.1685,37.7446,116.8375,0.0019777,0.00031319,0.0,0 STARLINK-3117,1 49435U 21104AD  22103.58336806  .00031319  00000-0  19777-2 0  9990,2 49435  53.2187 131.1685 0002318  37.7446 116.8375 15.08829558  3581,6917.9119999999975,95.438,541.381,538.174,0.0
49435.0,STARLINK-3117,PAYLOAD,2022-04-13 22:00:00,15.08826153,0.0002115,53.2189,129.6706,41.9038,124.1559,0.0027045,0.00043001,0.0,0 STARLINK-3117,1 49435U 21104AD  22103.91667824  .00043001  00000-0  27045-2 0  9992,2 49435  53.2189 129.6706 0002115  41.9038 124.1559 15.08826153  3638,6917.9230000000025,95.438,541.251,538.325,0.0
49435.0,STARLINK-3117,PAYLOAD,2022-04-14 06:00:00,15.088622699999998,0.0002235,53.2191,128.1753,41.8754,135.7747,-0.0016053,-0.00025762,0.0,0 STARLINK-3117,1 49435U 21104AD  22104.25001157 -.00025762  00000-0 -16053-2 0  9994,2 49435  53.2191 128.1753 0002235  41.8754 135.7747 15.08862270 24803,6917.812,95.436,541.2230000000002,538.131,0.0
49435.0,STARLINK-3117,PAYLOAD,2022-04-14 14:00:01,15.08857772,0.0002325,53.2187,126.6795,38.4565,150.8018,-0.0011105,-0.00017928,0.0,0 STARLINK-3117,1 49435U 21104AD  22104.58334491 -.00017928  00000-0 -11105-2 0  9998,2 49435  53.2187 126.6795 0002325  38.4565 150.8018 15.08857772  3615,6917.826,95.436,541.299,538.0830000000002,0.0
49435.0,STARLINK-3117,PAYLOAD,2022-04-14 22:00:00,15.08815506,0.0002063,53.2187,125.1813,41.1337,159.7469,0.0021855,0.00034643,0.0,0 STARLINK-3117,1 49435U 21104AD  22104.91667824  .00034643  00000-0  21855-2 0  9998,2 49435  53.2187 125.1813 0002063  41.1337 159.7469 15.08815506  3614,6917.955,95.439,541.247,538.393,0.0
49435.0,STARLINK-3117,PAYLOAD,2022-04-15 06:00:00,15.08853051,0.0002186,53.2188,123.6863,40.9895,171.4773,-0.0010783,-0.00017415,0.0,0 STARLINK-3117,1 49435U 21104AD  22105.25001157 -.00017415  00000-0 -10783-2 0  9995,2 49435  53.2188 123.6863 0002186  40.9895 171.4773 15.08853051 24951,6917.84,95.437,541.2180000000002,538.193,0.0
49435.0,STARLINK-3117,PAYLOAD,2022-04-15 14:00:01,15.08849295,0.0002271,53.2183,122.1902,38.8279,185.2399,0.00068919,0.000107,0.0,0 STARLINK-3117,1 49435U 21104AD  22105.58334491  .00010700  00000-0  68919-3 0  9994,2 49435  53.2183 122.1902 0002271  38.8279 185.2399 15.08849295  3613,6917.852,95.437,541.288,538.146,0.0
49435.0,STARLINK-3117,PAYLOAD,2022-04-15 22:00:00,15.08837148,0.0002047,53.2183,120.6921,43.024,192.6548,0.0014751,0.00023265,0.0,0 STARLINK-3117,1 49435U 21104AD  22105.91667824  .00023265  00000-0  14751-2 0  9994,2 49435  53.2183 120.6921 0002047  43.0240 192.6548 15.08837148 25058,6917.889,95.438,541.17,538.3380000000002,0.0
49435.0,STARLINK-3117,PAYLOAD,2022-04-16 14:00:01,15.08836148,0.0002201,53.2178,117.701,38.3716,220.4962,-0.00037052,-6.18e-05,0.0,0 STARLINK-3117,1 49435U 21104AD  22106.58334491 -.00006180  00000-0 -37052-3 0  9998,2 49435  53.2178 117.7010 0002201  38.3716 220.4962 15.08836148 25155,6917.892,95.438,541.28,538.235,0.0
49435.0,STARLINK-3117,PAYLOAD,2022-04-16 22:00:01,15.08811867,0.0002036,53.2177,116.2029,43.5978,226.9267,0.0028138,0.00044744,0.0,0 STARLINK-3117,1 49435U 21104AD  22106.91668981  .00044744  00000-0  28138-2 0  9999,2 49435  53.2177 116.2029 0002036  43.5978 226.9267 15.08811867  3608,6917.965999999999,95.439,541.24,538.423,0.0
49435.0,STARLINK-3117,PAYLOAD,2022-04-17 14:00:01,15.08850491,0.0002235,53.2174,113.2117,40.0682,253.562,-0.00084927,-0.00013783,0.0,0 STARLINK-3117,1 49435U 21104AD  22107.58334491 -.00013783  00000-0 -84927-3 0  9999,2 49435  53.2174 113.2117 0002235  40.0682 253.5620 15.08850491  3576,6917.848000000001,95.437,541.259,538.1669999999998,0.0
